*******************************************************************************
JPL/HORIZONS                     (2015 VC2)                2016-Jan-18 04:18:46
Rec #:742289 (+COV)   Soln.date: 2016-Jan-07_13:58:58     # obs: 93 (2015-2016)
 
FK5/J2000.0 helio. ecliptic osc. elements (au, days, deg., period=Julian yrs): 
 
  EPOCH=  2457352.5 ! 2015-Nov-26.00 (TDB)         Residual RMS= .25162        
   EC= .07662727669316433  QR= .974594207531325    TP= 2457411.6146060848      
   OM= 214.3554457562076   W=  268.7634267328857   IN= .7719736301735991       
   A= 1.05547216517405     MA= 306.2685331339228   ADIST= 1.136350122816775    
   PER= 1.08437            N= .908937214           ANGMOM= .017620817          
   DAN= 1.05101            DDN= 1.04754            L= 123.1187703              
   B= -.7717938            MOID= .0102857          TP= 2016-Jan-24.1146060848  
 
Asteroid physical parameters (km, seconds, rotational period in hours):        
   GM= n.a.                RAD= n.a.               ROTPER= n.a.                
   H= 27.4                 G= .150                 B-V= n.a.                   
                           ALBEDO= n.a.            STYP= n.a.                  
 
ASTEROID comments: 
1: soln ref.= JPL#25, OCC=4
2: source=ORB
*******************************************************************************
 
 
*******************************************************************************
Ephemeris / WWW_USER Mon Jan 18 04:18:46 2016 Pasadena, USA      / Horizons    
*******************************************************************************
Target body name: (2015 VC2)                      {source: JPL#25}
Center body name: Sun (10)                        {source: DE431}
Center-site name: BODY CENTER
*******************************************************************************
Start time      : A.D. 2015-Nov-03 00:00:00.0000 CT 
Stop  time      : A.D. 2016-Feb-03 00:00:00.0000 CT 
Step-size       : 1440 minutes
*******************************************************************************
Center geodetic : 0.00000000,0.00000000,0.0000000 {E-lon(deg),Lat(deg),Alt(km)}
Center cylindric: 0.00000000,0.00000000,0.0000000 {E-lon(deg),Dxy(km),Dz(km)}
Center radii    : 696000.0 x 696000.0 x 696000.0 k{Equator, meridian, pole}    
Small perturbers: Yes                             {source: SB431-BIG16}
Output units    : KM-S                                                         
Output format   : 03
Reference frame : ICRF/J2000.0                                                 
Output type     : GEOMETRIC cartesian states
Coordinate systm: Earth Mean Equator and Equinox of Reference Epoch            
*******************************************************************************
Initial FK5/J2000.0 heliocentric ecliptic osculating elements (au, days, deg.):
  EPOCH=  2457352.5 ! 2015-Nov-26.00 (TDB)         Residual RMS= .25162        
   EC= .07662727669316433  QR= .974594207531325    TP= 2457411.6146060848      
   OM= 214.3554457562076   W=  268.7634267328857   IN= .7719736301735991       
Asteroid physical parameters (km, seconds, rotational period in hours):        
   GM= n.a.                RAD= n.a.               ROTPER= n.a.                
   H= 27.4                 G= .150                 B-V= n.a.                   
                           ALBEDO= n.a.            STYP= n.a.                  
*******************************************************************************
JDCT ,   , X, Y, Z, VX, VY, VZ, LT, RG, RR,
*******************************************************************************
$$SOE
2457421.500000000, A.D. 2016-Feb-03 00:00:00.0000, -1.010877464098974E+08,  9.762328361207712E+07,  4.047889396803112E+07, -2.306174999329377E+01, -1.953413376117016E+01, -8.241918105621407E+00,  4.878205693577013E+02,  1.462449275507047E+08,  6.198527855640978E-01,
